STARLINK-1047           
1 44752U 19074AR  26068.49630605  .00012216  00000+0  39384-3 0  9999
2 44752  53.0690 146.9116 0002226 203.7253 156.3646 15.32581056349316
STARLINK-35500          
1 66093U 25236H   26068.48067529  .00031251  00000+0  10640-2 0  9999
2 66093  53.1593 104.7689 0001160  74.6283 285.4846 15.30164158 22910
